start=new Date('2022-09-24T00:00:00.000Z').valueOf();
sats=[{"RA_OF_ASC_NODE":"180.3824","PERIAPSIS":"348.996","OBJECT_NAME":"STARLINK-4688","REF_FRAME":"TEME","SITE":"AFETR","GP_ID":"213337224","SEMIMAJOR_AXIS":"6727.908","RCS_SIZE":"LARGE","OBJECT_ID":"2022-107Q","INCLINATION":"53.2148","TIME_SYSTEM":"UTC","MEAN_MOTION_DDOT":"0.0000000000000","TLE_LINE1":"1 53714U 22107Q   22266.83335648  .00020442  00000-0  14974-3 0  9990","ECCENTRICITY":"0.00011550","OBJECT_TYPE":"PAYLOAD","REV_AT_EPOCH":"130","ARG_OF_PERICENTER":"134.9415","DECAY_DATE":null,"MEAN_ANOMALY":"265.5614","MEAN_MOTION":"15.73195522","MEAN_ELEMENT_THEORY":"SGP4","TLE_LINE2":"2 53714  53.2148 180.3824 0001155 134.9415 265.5614 15.73195522  1303","EPHEMERIS_TYPE":"0","APOAPSIS":"350.550","BSTAR":"0.00014974000000","COUNTRY_CODE":"US","CENTER_NAME":"EARTH","FILE":"3581681","EPOCH":"2022-09-23T20:00:01.999872","PERIOD":"91.533","CLASSIFICATION_TYPE":"U","LAUNCH_DATE":"2022-09-05","NORAD_CAT_ID":"53714","ELEMENT_SET_NO":"999","MEAN_MOTION_DOT":"0.00020442"},{"GP_ID":"213336481","SITE":"AFETR","SEMIMAJOR_AXIS":"6727.735","INCLINATION":"53.2148","TIME_SYSTEM":"UTC","OBJECT_ID":"2022-107R","RCS_SIZE":"LARGE","OBJECT_NAME":"STARLINK-4686","PERIAPSIS":"348.551","RA_OF_ASC_NODE":"180.3870","REF_FRAME":"TEME","ARG_OF_PERICENTER":"124.9234","TLE_LINE2":"2 53715  53.2148 180.3870 0001559 124.9234 273.1596 15.73256303  1300","MEAN_ELEMENT_THEORY":"SGP4","MEAN_MOTION":"15.73256303","MEAN_ANOMALY":"273.1596","DECAY_DATE":null,"TLE_LINE1":"1 53715U 22107R   22266.83335648 -.00061085  00000-0 -43291-3 0  9995","OBJECT_TYPE":"PAYLOAD","ECCENTRICITY":"0.00015590","MEAN_MOTION_DDOT":"0.0000000000000","REV_AT_EPOCH":"130","FILE":"3581681","CENTER_NAME":"EARTH","EPOCH":"2022-09-23T20:00:01.999872","APOAPSIS":"350.649","EPHEMERIS_TYPE":"0","COUNTRY_CODE":"US","BSTAR":"-0.00043291000000","ELEMENT_SET_NO":"999","NORAD_CAT_ID":"53715","MEAN_MOTION_DOT":"-0.00061085","LAUNCH_DATE":"2022-09-05","CLASSIFICATION_TYPE":"U","PERIOD":"91.530"},{"LAUNCH_DATE":"2022-09-05","PERIOD":"91.532","CLASSIFICATION_TYPE":"U","NORAD_CAT_ID":"53716","ELEMENT_SET_NO":"999","MEAN_MOTION_DOT":"0.00037113","EPHEMERIS_TYPE":"0","APOAPSIS":"350.847","COUNTRY_CODE":"US","BSTAR":"0.00026754000000","CENTER_NAME":"EARTH","FILE":"3581681","EPOCH":"2022-09-23T20:00:01.999872","MEAN_MOTION_DDOT":"0.0000000000000","OBJECT_TYPE":"PAYLOAD","TLE_LINE1":"1 53716U 22107S   22266.83335648  .00037113  00000-0  26754-3 0  9994","ECCENTRICITY":"0.00016660","REV_AT_EPOCH":"130","ARG_OF_PERICENTER":"121.1584","MEAN_ANOMALY":"277.5098","DECAY_DATE":null,"MEAN_ELEMENT_THEORY":"SGP4","TLE_LINE2":"2 53716  53.2149 180.3862 0001666 121.1584 277.5098 15.73211905  1303","MEAN_MOTION":"15.73211905","RA_OF_ASC_NODE":"180.3862","OBJECT_NAME":"STARLINK-4699","PERIAPSIS":"348.605","REF_FRAME":"TEME","GP_ID":"213337060","SEMIMAJOR_AXIS":"6727.861","SITE":"AFETR","RCS_SIZE":"LARGE","INCLINATION":"53.2149","TIME_SYSTEM":"UTC","OBJECT_ID":"2022-107S"},{"REF_FRAME":"TEME","RA_OF_ASC_NODE":"178.7522","OBJECT_NAME":"STARLINK-4702","PERIAPSIS":"287.417","RCS_SIZE":"LARGE","INCLINATION":"53.2122","TIME_SYSTEM":"UTC","OBJECT_ID":"2022-107T","SEMIMAJOR_AXIS":"6670.275","GP_ID":"213337628","SITE":"AFETR","REV_AT_EPOCH":"130","MEAN_MOTION_DDOT":"0.0000208470000","TLE_LINE1":"1 53717U 22107T   22266.83335648  .00159691  20847-4  43950-3 0  9993","ECCENTRICITY":"0.00070800","OBJECT_TYPE":"PAYLOAD","DECAY_DATE":null,"MEAN_ANOMALY":"142.0980","TLE_LINE2":"2 53717  53.2122 178.7522 0007080 331.8714 142.0980 15.93628751  1309","MEAN_ELEMENT_THEORY":"SGP4","MEAN_MOTION":"15.93628751","ARG_OF_PERICENTER":"331.8714","COUNTRY_CODE":"US","BSTAR":"0.00043950000000","EPHEMERIS_TYPE":"0","APOAPSIS":"296.863","EPOCH":"2022-09-23T20:00:01.999872","CENTER_NAME":"EARTH","FILE":"3581681","LAUNCH_DATE":"2022-09-05","PERIOD":"90.360","CLASSIFICATION_TYPE":"U","MEAN_MOTION_DOT":"0.00159691","NORAD_CAT_ID":"53717","ELEMENT_SET_NO":"999"},{"BSTAR":"0.00024898000000","COUNTRY_CODE":"US","APOAPSIS":"350.636","EPHEMERIS_TYPE":"0","EPOCH":"2022-09-23T20:00:01.999872","FILE":"3581681","CENTER_NAME":"EARTH","PERIOD":"91.532","CLASSIFICATION_TYPE":"U","LAUNCH_DATE":"2022-09-05","MEAN_MOTION_DOT":"0.00034497","ELEMENT_SET_NO":"999","NORAD_CAT_ID":"53718","REF_FRAME":"TEME","PERIAPSIS":"348.768","OBJECT_NAME":"STARLINK-4695","RA_OF_ASC_NODE":"180.3849","OBJECT_ID":"2022-107U","INCLINATION":"53.2147","TIME_SYSTEM":"UTC","RCS_SIZE":"LARGE","GP_ID":"213337464","SITE":"AFETR","SEMIMAJOR_AXIS":"6727.837","REV_AT_EPOCH":"130","OBJECT_TYPE":"PAYLOAD","TLE_LINE1":"1 53718U 22107U   22266.83335648  .00034497  00000-0  24898-3 0  9995","ECCENTRICITY":"0.00013880","MEAN_MOTION_DDOT":"0.0000000000000","MEAN_MOTION":"15.73220493","TLE_LINE2":"2 53718  53.2147 180.3849 0001388 127.7244 271.4963 15.73220493  1300","MEAN_ELEMENT_THEORY":"SGP4","MEAN_ANOMALY":"271.4963","DECAY_DATE":null,"ARG_OF_PERICENTER":"127.7244"},{"MEAN_MOTION":"15.91465357","MEAN_ELEMENT_THEORY":"SGP4","TLE_LINE2":"2 53719  53.2128 178.9209 0007786 299.7704  92.4945 15.91465357  1303","MEAN_ANOMALY":"92.4945","DECAY_DATE":null,"ARG_OF_PERICENTER":"299.7704","REV_AT_EPOCH":"130","OBJECT_TYPE":"PAYLOAD","TLE_LINE1":"1 53719U 22107V   22266.83335648  .00125412  16934-4  38858-3 0  9992","ECCENTRICITY":"0.00077860","MEAN_MOTION_DDOT":"0.0000169340000","OBJECT_ID":"2022-107V","INCLINATION":"53.2128","TIME_SYSTEM":"UTC","RCS_SIZE":"MEDIUM","SEMIMAJOR_AXIS":"6676.319","GP_ID":"213336896","SITE":"AFETR","REF_FRAME":"TEME","PERIAPSIS":"292.985","OBJECT_NAME":"STARLINK-4644","RA_OF_ASC_NODE":"178.9209","MEAN_MOTION_DOT":"0.00125412","ELEMENT_SET_NO":"999","NORAD_CAT_ID":"53719","CLASSIFICATION_TYPE":"U","PERIOD":"90.483","LAUNCH_DATE":"2022-09-05","EPOCH":"2022-09-23T20:00:01.999872","FILE":"3581681","CENTER_NAME":"EARTH","BSTAR":"0.00038858000000","COUNTRY_CODE":"US","APOAPSIS":"303.382","EPHEMERIS_TYPE":"0"},{"MEAN_MOTION_DOT":"0.00012236","ELEMENT_SET_NO":"999","NORAD_CAT_ID":"53720","LAUNCH_DATE":"2022-09-05","CLASSIFICATION_TYPE":"U","PERIOD":"91.532","EPOCH":"2022-09-23T20:00:01.999872","FILE":"3581681","CENTER_NAME":"EARTH","COUNTRY_CODE":"US","BSTAR":"0.00009136100000","APOAPSIS":"350.600","EPHEMERIS_TYPE":"0","TLE_LINE2":"2 53720  53.2148 180.3885 0001367 130.0795 267.4011 15.73227928  1308","MEAN_ELEMENT_THEORY":"SGP4","MEAN_MOTION":"15.73227928","MEAN_ANOMALY":"267.4011","DECAY_DATE":null,"ARG_OF_PERICENTER":"130.0795","REV_AT_EPOCH":"130","OBJECT_TYPE":"PAYLOAD","TLE_LINE1":"1 53720U 22107W   22266.83335648  .00012236  00000-0  91361-4 0  9995","ECCENTRICITY":"0.00013670","MEAN_MOTION_DDOT":"0.0000000000000","INCLINATION":"53.2148","TIME_SYSTEM":"UTC","OBJECT_ID":"2022-107W","RCS_SIZE":"LARGE","SEMIMAJOR_AXIS":"6727.816","GP_ID":"213336645","SITE":"AFETR","REF_FRAME":"TEME","OBJECT_NAME":"STARLINK-4642","PERIAPSIS":"348.761","RA_OF_ASC_NODE":"180.3885"},{"PERIOD":"91.532","CLASSIFICATION_TYPE":"U","LAUNCH_DATE":"2022-09-05","ELEMENT_SET_NO":"999","NORAD_CAT_ID":"53721","MEAN_MOTION_DOT":"0.00036369","APOAPSIS":"350.718","EPHEMERIS_TYPE":"0","BSTAR":"0.00026227000000","COUNTRY_CODE":"US","FILE":"3581681","CENTER_NAME":"EARTH","EPOCH":"2022-09-23T20:00:01.999872","TLE_LINE1":"1 53721U 22107X   22266.83335648  .00036369  00000-0  26227-3 0  9997","ECCENTRICITY":"0.00014810","OBJECT_TYPE":"PAYLOAD","MEAN_MOTION_DDOT":"0.0000000000000","REV_AT_EPOCH":"130","ARG_OF_PERICENTER":"133.5801","MEAN_MOTION":"15.73213448","TLE_LINE2":"2 53721  53.2149 180.3949 0001481 133.5801 260.8800 15.73213448  1309","MEAN_ELEMENT_THEORY":"SGP4","MEAN_ANOMALY":"260.8800","DECAY_DATE":null,"PERIAPSIS":"348.725","OBJECT_NAME":"STARLINK-4707","RA_OF_ASC_NODE":"180.3949","REF_FRAME":"TEME","GP_ID":"213337389","SITE":"AFETR","SEMIMAJOR_AXIS":"6727.857","OBJECT_ID":"2022-107X","INCLINATION":"53.2149","TIME_SYSTEM":"UTC","RCS_SIZE":"LARGE"},{"ARG_OF_PERICENTER":"135.4798","MEAN_ANOMALY":"260.2179","DECAY_DATE":null,"MEAN_MOTION":"15.73232743","MEAN_ELEMENT_THEORY":"SGP4","TLE_LINE2":"2 53722  53.2148 180.3924 0001416 135.4798 260.2179 15.73232743  1308","MEAN_MOTION_DDOT":"0.0000000000000","ECCENTRICITY":"0.00014160","TLE_LINE1":"1 53722U 22107Y   22266.83335648  .00008716  00000-0  66361-4 0  9997","OBJECT_TYPE":"PAYLOAD","REV_AT_EPOCH":"130","SEMIMAJOR_AXIS":"6727.802","GP_ID":"213337225","SITE":"AFETR","RCS_SIZE":"LARGE","OBJECT_ID":"2022-107Y","INCLINATION":"53.2148","TIME_SYSTEM":"UTC","RA_OF_ASC_NODE":"180.3924","PERIAPSIS":"348.714","OBJECT_NAME":"STARLINK-4700","REF_FRAME":"TEME","NORAD_CAT_ID":"53722","ELEMENT_SET_NO":"999","MEAN_MOTION_DOT":"0.00008716","PERIOD":"91.531","CLASSIFICATION_TYPE":"U","LAUNCH_DATE":"2022-09-05","CENTER_NAME":"EARTH","FILE":"3581681","EPOCH":"2022-09-23T20:00:01.999872","EPHEMERIS_TYPE":"0","APOAPSIS":"350.619","BSTAR":"0.00006636100000","COUNTRY_CODE":"US"},{"MEAN_MOTION_DOT":"0.00035774","NORAD_CAT_ID":"53723","ELEMENT_SET_NO":"999","LAUNCH_DATE":"2022-09-05","CLASSIFICATION_TYPE":"U","PERIOD":"91.533","EPOCH":"2022-09-23T20:00:01.999872","CENTER_NAME":"EARTH","FILE":"3581681","COUNTRY_CODE":"US","BSTAR":"0.00025823000000","EPHEMERIS_TYPE":"0","APOAPSIS":"350.712","MEAN_ANOMALY":"257.5446","DECAY_DATE":null,"TLE_LINE2":"2 53723  53.2148 180.3972 0001412 135.7507 257.5446 15.73199211  1307","MEAN_ELEMENT_THEORY":"SGP4","MEAN_MOTION":"15.73199211","ARG_OF_PERICENTER":"135.7507","REV_AT_EPOCH":"130","MEAN_MOTION_DDOT":"0.0000000000000","TLE_LINE1":"1 53723U 22107Z   22266.83335648  .00035774  00000-0  25823-3 0  9999","OBJECT_TYPE":"PAYLOAD","ECCENTRICITY":"0.00014120","RCS_SIZE":"MEDIUM","INCLINATION":"53.2148","TIME_SYSTEM":"UTC","OBJECT_ID":"2022-107Z","SITE":"AFETR","GP_ID":"213336482","SEMIMAJOR_AXIS":"6727.897","REF_FRAME":"TEME","RA_OF_ASC_NODE":"180.3972","OBJECT_NAME":"STARLINK-4705","PERIAPSIS":"348.812"}];
